[{"COMMENT":"GENERATED VIA SPACETRACK.ORG API","ORIGINATOR":"18 SPCS","NORAD_CAT_ID":"45120","OBJECT_NAME":"VPM","OBJECT_TYPE":"PAYLOAD","CLASSIFICATION_TYPE":"U","INTLDES":"19071K","EPOCH":"2020-03-05 09:06:30","EPOCH_MICROSECONDS":"791520","MEAN_MOTION":"15.3332073","ECCENTRICITY":"0.0012244","INCLINATION":"51.6425","RA_OF_ASC_NODE":"146.0583","ARG_OF_PERICENTER":"40.2811","MEAN_ANOMALY":"319.9076","EPHEMERIS_TYPE":"0","ELEMENT_SET_NO":"999","REV_AT_EPOCH":"504","BSTAR":"0.000092846","MEAN_MOTION_DOT":"0.00002662","MEAN_MOTION_DDOT":"0","FILE":"2713791","TLE_LINE0":"0 VPM","TLE_LINE1":"1 45120U 19071K   20065.37952305  .00002662  00000-0  92846-4 0  9996","TLE_LINE2":"2 45120  51.6425 146.0583 0012244  40.2811 319.9076 15.33320730  5044","OBJECT_ID":"2019-071K","OBJECT_NUMBER":"45120","SEMIMAJOR_AXIS":"6844.049","PERIOD":"93.913","APOGEE":"474.294","PERIGEE":"457.535","DECAYED":"0"},{"COMMENT":"GENERATED VIA SPACETRACK.ORG API","ORIGINATOR":"18 SPCS","NORAD_CAT_ID":"45120","OBJECT_NAME":"VPM","OBJECT_TYPE":"PAYLOAD","CLASSIFICATION_TYPE":"U","INTLDES":"19071K","EPOCH":"2020-03-06 11:42:00","EPOCH_MICROSECONDS":"644544","MEAN_MOTION":"15.33325754","ECCENTRICITY":"0.0012278","INCLINATION":"51.6425","RA_OF_ASC_NODE":"140.7065","ARG_OF_PERICENTER":"43.9566","MEAN_ANOMALY":"316.2391","EPHEMERIS_TYPE":"0","ELEMENT_SET_NO":"999","REV_AT_EPOCH":"521","BSTAR":"0.000094067","MEAN_MOTION_DOT":"0.00002703","MEAN_MOTION_DDOT":"0","FILE":"2714474","TLE_LINE0":"0 VPM","TLE_LINE1":"1 45120U 19071K   20066.48750746  .00002703  00000-0  94067-4 0  9997","TLE_LINE2":"2 45120  51.6425 140.7065 0012278  43.9566 316.2391 15.33325754  5214","OBJECT_ID":"2019-071K","OBJECT_NUMBER":"45120","SEMIMAJOR_AXIS":"6844.034","PERIOD":"93.913","APOGEE":"474.303","PERIGEE":"457.496","DECAYED":"0"},{"COMMENT":"GENERATED VIA SPACETRACK.ORG API","ORIGINATOR":"18 SPCS","NORAD_CAT_ID":"45120","OBJECT_NAME":"VPM","OBJECT_TYPE":"PAYLOAD","CLASSIFICATION_TYPE":"U","INTLDES":"19071K","EPOCH":"2020-03-06 14:49:42","EPOCH_MICROSECONDS":"937248","MEAN_MOTION":"15.33326974","ECCENTRICITY":"0.0012281","INCLINATION":"51.6425","RA_OF_ASC_NODE":"140.0769","ARG_OF_PERICENTER":"44.4328","MEAN_ANOMALY":"315.7637","EPHEMERIS_TYPE":"0","ELEMENT_SET_NO":"999","REV_AT_EPOCH":"523","BSTAR":"0.000098892","MEAN_MOTION_DOT":"0.00002861","MEAN_MOTION_DDOT":"0","FILE":"2714648","TLE_LINE0":"0 VPM","TLE_LINE1":"1 45120U 19071K   20066.61785807 +.00002861 +00000-0 +98892-4 0  9993","TLE_LINE2":"2 45120 051.6425 140.0769 0012281 044.4328 315.7637 15.33326974005238","OBJECT_ID":"2019-071K","OBJECT_NUMBER":"45120","SEMIMAJOR_AXIS":"6844.031","PERIOD":"93.913","APOGEE":"474.301","PERIGEE":"457.491","DECAYED":"0"},{"COMMENT":"GENERATED VIA SPACETRACK.ORG API","ORIGINATOR":"18 SPCS","NORAD_CAT_ID":"45120","OBJECT_NAME":"VPM","OBJECT_TYPE":"PAYLOAD","CLASSIFICATION_TYPE":"U","INTLDES":"19071K","EPOCH":"2020-03-07 06:28:14","EPOCH_MICROSECONDS":"339424","MEAN_MOTION":"15.33330931","ECCENTRICITY":"0.0012279","INCLINATION":"51.6426","RA_OF_ASC_NODE":"136.9284","ARG_OF_PERICENTER":"46.6282","MEAN_ANOMALY":"313.5721","EPHEMERIS_TYPE":"0","ELEMENT_SET_NO":"999","REV_AT_EPOCH":"533","BSTAR":"0.00010111","MEAN_MOTION_DOT":"0.00002934","MEAN_MOTION_DDOT":"0","FILE":"2715183","TLE_LINE0":"0 VPM","TLE_LINE1":"1 45120U 19071K   20067.26961041 +.00002934 +00000-0 +10111-3 0  9999","TLE_LINE2":"2 45120 051.6426 136.9284 0012279 046.6282 313.5721 15.33330931005334","OBJECT_ID":"2019-071K","OBJECT_NUMBER":"45120","SEMIMAJOR_AXIS":"6844.019","PERIOD":"93.913","APOGEE":"474.288","PERIGEE":"457.480","DECAYED":"0"},{"COMMENT":"GENERATED VIA SPACETRACK.ORG API","ORIGINATOR":"18 SPCS","NORAD_CAT_ID":"45120","OBJECT_NAME":"VPM","OBJECT_TYPE":"PAYLOAD","CLASSIFICATION_TYPE":"U","INTLDES":"19071K","EPOCH":"2020-03-07 12:43:38","EPOCH_MICROSECONDS":"838432","MEAN_MOTION":"15.33333485","ECCENTRICITY":"0.0012292","INCLINATION":"51.6426","RA_OF_ASC_NODE":"135.6691","ARG_OF_PERICENTER":"47.4604","MEAN_ANOMALY":"312.7414","EPHEMERIS_TYPE":"0","ELEMENT_SET_NO":"999","REV_AT_EPOCH":"537","BSTAR":"0.00011017","MEAN_MOTION_DOT":"0.00003232","MEAN_MOTION_DDOT":"0","FILE":"2714951","TLE_LINE0":"0 VPM","TLE_LINE1":"1 45120U 19071K   20067.53031063 +.00003232 +00000-0 +11017-3 0  9999","TLE_LINE2":"2 45120 051.6426 135.6691 0012292 047.4604 312.7414 15.33333485005375","OBJECT_ID":"2019-071K","OBJECT_NUMBER":"45120","SEMIMAJOR_AXIS":"6844.011","PERIOD":"93.913","APOGEE":"474.289","PERIGEE":"457.464","DECAYED":"0"},{"COMMENT":"GENERATED VIA SPACETRACK.ORG API","ORIGINATOR":"18 SPCS","NORAD_CAT_ID":"45120","OBJECT_NAME":"VPM","OBJECT_TYPE":"PAYLOAD","CLASSIFICATION_TYPE":"U","INTLDES":"19071K","EPOCH":"2020-03-07 23:40:36","EPOCH_MICROSECONDS":"652512","MEAN_MOTION":"15.33336663","ECCENTRICITY":"0.0012303","INCLINATION":"51.6426","RA_OF_ASC_NODE":"133.4652","ARG_OF_PERICENTER":"49.0115","MEAN_ANOMALY":"311.1929","EPHEMERIS_TYPE":"0","ELEMENT_SET_NO":"999","REV_AT_EPOCH":"544","BSTAR":"0.0001113","MEAN_MOTION_DOT":"0.00003269","MEAN_MOTION_DDOT":"0","FILE":"2715260","TLE_LINE0":"0 VPM","TLE_LINE1":"1 45120U 19071K   20067.98653533  .00003269  00000-0  11130-3 0  9996","TLE_LINE2":"2 45120  51.6426 133.4652 0012303  49.0115 311.1929 15.33336663  5449","OBJECT_ID":"2019-071K","OBJECT_NUMBER":"45120","SEMIMAJOR_AXIS":"6844.002","PERIOD":"93.912","APOGEE":"474.287","PERIGEE":"457.447","DECAYED":"0"},{"COMMENT":"GENERATED VIA SPACETRACK.ORG API","ORIGINATOR":"18 SPCS","NORAD_CAT_ID":"45120","OBJECT_NAME":"VPM","OBJECT_TYPE":"PAYLOAD","CLASSIFICATION_TYPE":"U","INTLDES":"19071K","EPOCH":"2020-03-08 04:22:09","EPOCH_MICROSECONDS":"996096","MEAN_MOTION":"15.33336579","ECCENTRICITY":"0.0012298","INCLINATION":"51.6426","RA_OF_ASC_NODE":"132.5207","ARG_OF_PERICENTER":"49.6242","MEAN_ANOMALY":"310.5812","EPHEMERIS_TYPE":"0","ELEMENT_SET_NO":"999","REV_AT_EPOCH":"547","BSTAR":"0.000098014","MEAN_MOTION_DOT":"0.00002833","MEAN_MOTION_DDOT":"0","FILE":"2715461","TLE_LINE0":"0 VPM","TLE_LINE1":"1 45120U 19071K   20068.18206014 +.00002833 +00000-0 +98014-4 0  9990","TLE_LINE2":"2 45120 051.6426 132.5207 0012298 049.6242 310.5812 15.33336579005478","OBJECT_ID":"2019-071K","OBJECT_NUMBER":"45120","SEMIMAJOR_AXIS":"6844.002","PERIOD":"93.912","APOGEE":"474.284","PERIGEE":"457.451","DECAYED":"0"},{"COMMENT":"GENERATED VIA SPACETRACK.ORG API","ORIGINATOR":"18 SPCS","NORAD_CAT_ID":"45120","OBJECT_NAME":"VPM","OBJECT_TYPE":"PAYLOAD","CLASSIFICATION_TYPE":"U","INTLDES":"19071K","EPOCH":"2020-03-08 18:26:49","EPOCH_MICROSECONDS":"865280","MEAN_MOTION":"15.33341339","ECCENTRICITY":"0.0012321","INCLINATION":"51.6426","RA_OF_ASC_NODE":"129.6871","ARG_OF_PERICENTER":"51.624","MEAN_ANOMALY":"308.5847","EPHEMERIS_TYPE":"0","ELEMENT_SET_NO":"999","REV_AT_EPOCH":"556","BSTAR":"0.00010422","MEAN_MOTION_DOT":"0.00003037","MEAN_MOTION_DDOT":"0","FILE":"2715578","TLE_LINE0":"0 VPM","TLE_LINE1":"1 45120U 19071K   20068.76863270 +.00003037 +00000-0 +10422-3 0  9990","TLE_LINE2":"2 45120 051.6426 129.6871 0012321 051.6240 308.5847 15.33341339005565","OBJECT_ID":"2019-071K","OBJECT_NUMBER":"45120","SEMIMAJOR_AXIS":"6843.988","PERIOD":"93.912","APOGEE":"474.286","PERIGEE":"457.421","DECAYED":"0"},{"COMMENT":"GENERATED VIA SPACETRACK.ORG API","ORIGINATOR":"18 SPCS","NORAD_CAT_ID":"45120","OBJECT_NAME":"VPM","OBJECT_TYPE":"PAYLOAD","CLASSIFICATION_TYPE":"U","INTLDES":"19071K","EPOCH":"2020-03-09 10:05:20","EPOCH_MICROSECONDS":"692032","MEAN_MOTION":"15.33345617","ECCENTRICITY":"0.0012335","INCLINATION":"51.6426","RA_OF_ASC_NODE":"126.5386","ARG_OF_PERICENTER":"53.8229","MEAN_ANOMALY":"306.3892","EPHEMERIS_TYPE":"0","ELEMENT_SET_NO":"999","REV_AT_EPOCH":"566","BSTAR":"0.0001022","MEAN_MOTION_DOT":"0.00002971","MEAN_MOTION_DDOT":"0","FILE":"2715805","TLE_LINE0":"0 VPM","TLE_LINE1":"1 45120U 19071K   20069.42037838  .00002971  00000-0  10220-3 0  9999","TLE_LINE2":"2 45120  51.6426 126.5386 0012335  53.8229 306.3892 15.33345617  5668","OBJECT_ID":"2019-071K","OBJECT_NUMBER":"45120","SEMIMAJOR_AXIS":"6843.975","PERIOD":"93.912","APOGEE":"474.282","PERIGEE":"457.398","DECAYED":"0"},{"COMMENT":"GENERATED VIA SPACETRACK.ORG API","ORIGINATOR":"18 SPCS","NORAD_CAT_ID":"45120","OBJECT_NAME":"VPM","OBJECT_TYPE":"PAYLOAD","CLASSIFICATION_TYPE":"U","INTLDES":"19071K","EPOCH":"2020-03-09 11:39:11","EPOCH_MICROSECONDS":"756736","MEAN_MOTION":"15.33346338","ECCENTRICITY":"0.0012339","INCLINATION":"51.6426","RA_OF_ASC_NODE":"126.2238","ARG_OF_PERICENTER":"54.0327","MEAN_ANOMALY":"306.1797","EPHEMERIS_TYPE":"0","ELEMENT_SET_NO":"999","REV_AT_EPOCH":"567","BSTAR":"0.00010407","MEAN_MOTION_DOT":"0.00003033","MEAN_MOTION_DDOT":"0","FILE":"2715817","TLE_LINE0":"0 VPM","TLE_LINE1":"1 45120U 19071K   20069.48555274 +.00003033 +00000-0 +10407-3 0  9991","TLE_LINE2":"2 45120 051.6426 126.2238 0012339 054.0327 306.1797 15.33346338005671","OBJECT_ID":"2019-071K","OBJECT_NUMBER":"45120","SEMIMAJOR_AXIS":"6843.973","PERIOD":"93.912","APOGEE":"474.283","PERIGEE":"457.393","DECAYED":"0"},{"COMMENT":"GENERATED VIA SPACETRACK.ORG API","ORIGINATOR":"18 SPCS","NORAD_CAT_ID":"45120","OBJECT_NAME":"VPM","OBJECT_TYPE":"PAYLOAD","CLASSIFICATION_TYPE":"U","INTLDES":"19071K","EPOCH":"2020-03-09 21:02:18","EPOCH_MICROSECONDS":"154464","MEAN_MOTION":"15.3334855","ECCENTRICITY":"0.0012357","INCLINATION":"51.6426","RA_OF_ASC_NODE":"124.3347","ARG_OF_PERICENTER":"55.3255","MEAN_ANOMALY":"304.8889","EPHEMERIS_TYPE":"0","ELEMENT_SET_NO":"999","REV_AT_EPOCH":"573","BSTAR":"0.000097214","MEAN_MOTION_DOT":"0.00002808","MEAN_MOTION_DDOT":"0","FILE":"2716026","TLE_LINE0":"0 VPM","TLE_LINE1":"1 45120U 19071K   20069.87659901 +.00002808 +00000-0 +97214-4 0  9997","TLE_LINE2":"2 45120 051.6426 124.3347 0012357 055.3255 304.8889 15.33348550005737","OBJECT_ID":"2019-071K","OBJECT_NUMBER":"45120","SEMIMAJOR_AXIS":"6843.967","PERIOD":"93.912","APOGEE":"474.289","PERIGEE":"457.375","DECAYED":"0"}]